{"type": "FeatureCollection", "features": [ {"type": "Feature", "properties": {"norad_id": 34976, "name": "COSMOS 2251 DEB", "group": "cosmos-2251-debris", "lat": 42.28834694064989, "lon": -40.461123906451796, "alt_km": 616.2339321405825, "timestamp": "2025-12-13T15:35:12.499791+00:00", "meta": {"OBJECT_NAME": "COSMOS 2251 DEB", "OBJECT_ID": "1993-036AFF", "EPOCH": "2025-12-12T15:49:24.007296", "MEAN_MOTION": 14.76565427, "ECCENTRICITY": 0.00478023, "INCLINATION": 74.0574, "RA_OF_ASC_NODE": 306.4053, "ARG_OF_PERICENTER": 353.1884, "MEAN_ANOMALY": 189.7541, "EPHEMERIS_TYPE": 0, "CLASSIFICATION_TYPE": "U", "NORAD_CAT_ID": 34976, "ELEMENT_SET_NO": 999, "REV_AT_EPOCH": 88272, "BSTAR": 0.0024219818, "MEAN_MOTION_DOT": 0.0001723, "MEAN_MOTION_DDOT": 0}, "tle": {"line1": "1 34976U 93036AFF 25346.65930564  .00017230  00000+0  24220-2 0  9992", "line2": "2 34976  74.0574 306.4053 0047802 353.1884 189.7541 14.76565427882721"}}, "geometry": {"type": "Point", "coordinates": [-40.461123906451796, 42.28834694064989]}}, {"type": "Feature", "properties": {"norad_id": 34979, "name": "COSMOS 2251 DEB", "group": "cosmos-2251-debris", "lat": 70.05931930804906, "lon": 33.396351237232444, "alt_km": 640.6423265811136, "timestamp": "2025-12-13T15:35:12.499801+00:00", "meta": {"OBJECT_NAME": "COSMOS 2251 DEB", "OBJECT_ID": "1993-036AFJ", "EPOCH": "2025-12-12T18:01:47.285472", "MEAN_MOTION": 14.79355738, "ECCENTRICITY": 0.00490418, "INCLINATION": 74.0395, "RA_OF_ASC_NODE": 267.2405, "ARG_OF_PERICENTER": 345.1365, "MEAN_ANOMALY": 14.8366, "EPHEMERIS_TYPE": 0, "CLASSIFICATION_TYPE": "U", "NORAD_CAT_ID": 34979, "ELEMENT_SET_NO": 999, "REV_AT_EPOCH": 88220, "BSTAR": 0.0018975921, "MEAN_MOTION_DOT": 0.00014425, "MEAN_MOTION_DDOT": 0}, "tle": {"line1": "1 34979U 93036AFJ 25346.75124173  .00014425  00000+0  18976-2 0  9991", "line2": "2 34979  74.0395 267.2405 0049041 345.1365  14.8366 14.79355738882203"}}, "geometry": {"type": "Point", "coordinates": [33.396351237232444, 70.05931930804906]}}, {"type": "Feature", "properties": {"norad_id": 34990, "name": "COSMOS 2251 DEB", "group": "cosmos-2251-debris", "lat": 73.21554112336963, "lon": -38.82656078459591, "alt_km": 751.062716332628, "timestamp": "2025-12-13T15:35:12.499811+00:00", "meta": {"OBJECT_NAME": "COSMOS 2251 DEB", "OBJECT_ID": "1993-036AFN", "EPOCH": "2025-12-11T11:35:34.713024", "MEAN_MOTION": 14.42369611, "ECCENTRICITY": 0.001637, "INCLINATION": 74.0455, "RA_OF_ASC_NODE": 253.6657, "ARG_OF_PERICENTER": 317.4187, "MEAN_ANOMALY": 42.5699, "EPHEMERIS_TYPE": 0, "CLASSIFICATION_TYPE": "U", "NORAD_CAT_ID": 34990, "ELEMENT_SET_NO": 999, "REV_AT_EPOCH": 87328, "BSTAR": 0.00064071244, "MEAN_MOTION_DOT": 2.095e-05, "MEAN_MOTION_DDOT": 0}, "tle": {"line1": "1 34990U 93036AFN 25345.48304066  .00002095  00000+0  64071-3 0  9992", "line2": "2 34990  74.0455 253.6657 0016370 317.4187  42.5699 14.42369611873284"}}, "geometry": {"type": "Point", "coordinates": [-38.82656078459591, 73.21554112336963]}}, {"type": "Feature", "properties": {"norad_id": 34997, "name": "COSMOS 2251 DEB", "group": "cosmos-2251-debris", "lat": -71.19928128285304, "lon": -172.35966199860658, "alt_km": 683.3384230966758, "timestamp": "2025-12-13T15:35:12.499821+00:00", "meta": {"OBJECT_NAME": "COSMOS 2251 DEB", "OBJECT_ID": "1993-036AFV", "EPOCH": "2025-12-12T15:07:37.525152", "MEAN_MOTION": 14.4555903, "ECCENTRICITY": 0.00978968, "INCLINATION": 73.8801, "RA_OF_ASC_NODE": 311.4025, "ARG_OF_PERICENTER": 286.4207, "MEAN_ANOMALY": 72.6207, "EPHEMERIS_TYPE": 0, "CLASSIFICATION_TYPE": "U", "NORAD_CAT_ID": 34997, "ELEMENT_SET_NO": 999, "REV_AT_EPOCH": 70745, "BSTAR": 0.0024908472, "MEAN_MOTION_DOT": 9.311e-05, "MEAN_MOTION_DDOT": 0}, "tle": {"line1": "1 34997U 93036AFV 25346.63029543  .00009311  00000+0  24908-2 0  9993", "line2": "2 34997  73.8801 311.4025 0097896 286.4207  72.6207 14.45559030707458"}}, "geometry": {"type": "Point", "coordinates": [-172.35966199860658, -71.19928128285304]}}, {"type": "Feature", "properties": {"norad_id": 34998, "name": "COSMOS 2251 DEB", "group": "cosmos-2251-debris", "lat": 26.8660796117831, "lon": -30.076829093196206, "alt_km": 739.7954462774487, "timestamp": "2025-12-13T15:35:12.499831+00:00", "meta": {"OBJECT_NAME": "COSMOS 2251 DEB", "OBJECT_ID": "1993-036AFW", "EPOCH": "2025-12-12T20:58:41.255904", "MEAN_MOTION": 14.49281835, "ECCENTRICITY": 0.00211297, "INCLINATION": 74.0099, "RA_OF_ASC_NODE": 159.7316, "ARG_OF_PERICENTER": 305.1196, "MEAN_ANOMALY": 123.1096, "EPHEMERIS_TYPE": 0, "CLASSIFICATION_TYPE": "U", "NORAD_CAT_ID": 34998, "ELEMENT_SET_NO": 999, "REV_AT_EPOCH": 87422, "BSTAR": 0.00089404423, "MEAN_MOTION_DOT": 3.394e-05, "MEAN_MOTION_DDOT": 0}, "tle": {"line1": "1 34998U 93036AFW 25346.87408861  .00003394  00000+0  89404-3 0  9992", "line2": "2 34998  74.0099 159.7316 0021129 305.1196 123.1096 14.49281835874226"}}, "geometry": {"type": "Point", "coordinates": [-30.076829093196206, 26.8660796117831]}}, {"type": "Feature", "properties": {"norad_id": 35000, "name": "COSMOS 2251 DEB", "group": "cosmos-2251-debris", "lat": -61.838877785778294, "lon": 48.157621231611124, "alt_km": 263.60000171700176, "timestamp": "2025-12-13T15:35:12.499841+00:00", "meta": {"OBJECT_NAME": "COSMOS 2251 DEB", "OBJECT_ID": "1993-036AFY", "EPOCH": "2025-12-10T00:39:45.535104", "MEAN_MOTION": 15.84722247, "ECCENTRICITY": 0.00096992, "INCLINATION": 73.9939, "RA_OF_ASC_NODE": 204.1935, "ARG_OF_PERICENTER": 175.3945, "MEAN_ANOMALY": 184.7377, "EPHEMERIS_TYPE": 0, "CLASSIFICATION_TYPE": "U", "NORAD_CAT_ID": 35000, "ELEMENT_SET_NO": 999, "REV_AT_EPOCH": 88472, "BSTAR": 0.007821664, "MEAN_MOTION_DOT": 0.0209211, "MEAN_MOTION_DDOT": 0}, "tle": {"line1": "1 35000U 93036AFY 25344.02761036  .02092110  00000+0  78217-2 0  9993", "line2": "2 35000  73.9939 204.1935 0009699 175.3945 184.7377 15.84722247884729"}}, "geometry": {"type": "Point", "coordinates": [48.157621231611124, -61.838877785778294]}}, {"type": "Feature", "properties": {"norad_id": 35012, "name": "COSMOS 2251 DEB", "group": "cosmos-2251-debris", "lat": 62.5349161731676, "lon": -103.41759498791426, "alt_km": 776.3223706852177, "timestamp": "2025-12-13T15:35:12.499850+00:00", "meta": {"OBJECT_NAME": "COSMOS 2251 DEB", "OBJECT_ID": "1993-036AFZ", "EPOCH": "2025-12-12T00:51:32.883264", "MEAN_MOTION": 14.45547305, "ECCENTRICITY": 0.00816565, "INCLINATION": 74.0195, "RA_OF_ASC_NODE": 113.0496, "ARG_OF_PERICENTER": 253.3622, "MEAN_ANOMALY": 105.8559, "EPHEMERIS_TYPE": 0, "CLASSIFICATION_TYPE": "U", "NORAD_CAT_ID": 35012, "ELEMENT_SET_NO": 999, "REV_AT_EPOCH": 87551, "BSTAR": 0.00028890407, "MEAN_MOTION_DOT": 1.033e-05, "MEAN_MOTION_DDOT": 0}, "tle": {"line1": "1 35012U 93036AFZ 25346.03579726  .00001033  00000+0  28890-3 0  9997", "line2": "2 35012  74.0195 113.0496 0081656 253.3622 105.8559 14.45547305875519"}}, "geometry": {"type": "Point", "coordinates": [-103.41759498791426, 62.5349161731676]}}, {"type": "Feature", "properties": {"norad_id": 35014, "name": "COSMOS 2251 DEB", "group": "cosmos-2251-debris", "lat": -41.18628355065355, "lon": 27.21564846268084, "alt_km": 651.5752296051933, "timestamp": "2025-12-13T15:35:12.499860+00:00", "meta": {"OBJECT_NAME": "COSMOS 2251 DEB", "OBJECT_ID": "1993-036AGB", "EPOCH": "2025-12-10T11:17:04.408224", "MEAN_MOTION": 14.75108648, "ECCENTRICITY": 0.0007489, "INCLINATION": 73.9993, "RA_OF_ASC_NODE": 47.9831, "ARG_OF_PERICENTER": 224.1256, "MEAN_ANOMALY": 135.932, "EPHEMERIS_TYPE": 0, "CLASSIFICATION_TYPE": "U", "NORAD_CAT_ID": 35014, "ELEMENT_SET_NO": 999, "REV_AT_EPOCH": 71303, "BSTAR": 0.0024781418, "MEAN_MOTION_DOT": 0.00016732, "MEAN_MOTION_DDOT": 0}, "tle": {"line1": "1 35014U 93036AGB 25344.47018991  .00016732  00000+0  24781-2 0  9993", "line2": "2 35014  73.9993  47.9831 0007489 224.1256 135.9320 14.75108648713038"}}, "geometry": {"type": "Point", "coordinates": [27.21564846268084, -41.18628355065355]}}, {"type": "Feature", "properties": {"norad_id": 35015, "name": "COSMOS 2251 DEB", "group": "cosmos-2251-debris", "lat": -67.27829244021672, "lon": 96.45787567171178, "alt_km": 789.221562074471, "timestamp": "2025-12-13T15:35:12.499870+00:00", "meta": {"OBJECT_NAME": "COSMOS 2251 DEB", "OBJECT_ID": "1993-036AGC", "EPOCH": "2025-12-08T23:19:05.687904", "MEAN_MOTION": 14.46841193, "ECCENTRICITY": 0.0074204, "INCLINATION": 73.9478, "RA_OF_ASC_NODE": 241.8046, "ARG_OF_PERICENTER": 111.6456, "MEAN_ANOMALY": 265.9615, "EPHEMERIS_TYPE": 0, "CLASSIFICATION_TYPE": "U", "NORAD_CAT_ID": 35015, "ELEMENT_SET_NO": 999, "REV_AT_EPOCH": 65386, "BSTAR": 0.00095869, "MEAN_MOTION_DOT": 3.57e-05, "MEAN_MOTION_DDOT": 0}, "tle": {"line1": "1 35015U 93036AGC 25342.97159361  .00003570  00000+0  95869-3 0  9996", "line2": "2 35015  73.9478 241.8046 0074204 111.6456 265.9615 14.46841193653863"}}, "geometry": {"type": "Point", "coordinates": [96.45787567171178, -67.27829244021672]}}, {"type": "Feature", "properties": {"norad_id": 35016, "name": "COSMOS 2251 DEB", "group": "cosmos-2251-debris", "lat": -53.97601802322181, "lon": 136.09770796629226, "alt_km": 708.7717441551449, "timestamp": "2025-12-13T15:35:12.499879+00:00", "meta": {"OBJECT_NAME": "COSMOS 2251 DEB", "OBJECT_ID": "1993-036AGD", "EPOCH": "2025-12-12T14:13:37.756704", "MEAN_MOTION": 14.35060321, "ECCENTRICITY": 0.01145219, "INCLINATION": 73.9299, "RA_OF_ASC_NODE": 294.6934, "ARG_OF_PERICENTER": 211.7131, "MEAN_ANOMALY": 328.2097, "EPHEMERIS_TYPE": 0, "CLASSIFICATION_TYPE": "U", "NORAD_CAT_ID": 35016, "ELEMENT_SET_NO": 999, "REV_AT_EPOCH": 86780, "BSTAR": 0.00052896522, "MEAN_MOTION_DOT": 1.596e-05, "MEAN_MOTION_DDOT": 0}, "tle": {"line1": "1 35016U 93036AGD 25346.59279811  .00001596  00000+0  52897-3 0  9992", "line2": "2 35016  73.9299 294.6934 0114521 211.7131 328.2097 14.35060321867808"}}, "geometry": {"type": "Point", "coordinates": [136.09770796629226, -53.97601802322181]}}]}